AEROCUBE 6B             
1 40046U 14033AN  26068.42625992  .00007941  00000+0  66368-3 0  9998
2 40046  97.7129 236.1645 0037452 343.2300  16.7681 14.98232474631816
STARLINK-36156          
1 67006U 25293D   26068.48633606  .00003498  00000+0  30061-3 0  9994
2 67006  70.0000  95.1201 0004014 266.1400  93.9300 14.98350490 14859
